[{"OBJECT_NAME":"STARLINK-5303","OBJECT_ID":"2023-021C","EPOCH":"2026-03-09T19:15:47.208672","MEAN_MOTION":14.98330043,"ECCENTRICITY":0.00030645,"INCLINATION":70.0006,"RA_OF_ASC_NODE":204.2304,"ARG_OF_PERICENTER":269.6598,"MEAN_ANOMALY":90.421,"EPHEMERIS_TYPE":0,"CLASSIFICATION_TYPE":"U","NORAD_CAT_ID":55630,"ELEMENT_SET_NO":999,"REV_AT_EPOCH":16831,"BSTAR":1.049799e-5,"MEAN_MOTION_DOT":3.2e-7,"MEAN_MOTION_DDOT":0},{"OBJECT_NAME":"DUMSAT","OBJECT_ID":"2000-009A","EPOCH":"2026-03-09T21:34:49.034496","MEAN_MOTION":14.97147245,"ECCENTRICITY":0.00231559,"INCLINATION":64.8536,"RA_OF_ASC_NODE":17.131,"ARG_OF_PERICENTER":263.9519,"MEAN_ANOMALY":95.8958,"EPHEMERIS_TYPE":0,"CLASSIFICATION_TYPE":"U","NORAD_CAT_ID":26086,"ELEMENT_SET_NO":999,"REV_AT_EPOCH":42337,"BSTAR":4.8857475e-5,"MEAN_MOTION_DOT":4.04e-6,"MEAN_MOTION_DDOT":0}]
